{"type": "FeatureCollection", "features": [ {"type": "Feature", "properties": {"norad_id": 38552, "name": "METEOSAT-10 (MSG-3)", "group": "weather", "lat": -4.257768808495298, "lon": -32.27347367735353, "alt_km": 35782.20607837872, "timestamp": "2025-12-22T15:43:48.625300+00:00", "meta": {"OBJECT_NAME": "METEOSAT-10 (MSG-3)", "OBJECT_ID": "2012-035B", "EPOCH": "2025-12-22T01:10:55.257888", "MEAN_MOTION": 1.00276818, "ECCENTRICITY": 7.128e-05, "INCLINATION": 4.2491, "RA_OF_ASC_NODE": 61.6977, "ARG_OF_PERICENTER": 266.7505, "MEAN_ANOMALY": 140.4613, "EPHEMERIS_TYPE": 0, "CLASSIFICATION_TYPE": "U", "NORAD_CAT_ID": 38552, "ELEMENT_SET_NO": 999, "REV_AT_EPOCH": 4908, "BSTAR": 0, "MEAN_MOTION_DOT": 1.6e-07, "MEAN_MOTION_DDOT": 0}, "tle": {"line1": "1 38552U 12035B   25356.04925067  .00000016  00000+0  00000+0 0  9993", "line2": "2 38552   4.2491  61.6977 0000712 266.7505 140.4613  1.00276818 49085"}}, "geometry": {"type": "Point", "coordinates": [-32.27347367735353, -4.257768808495298]}}, {"type": "Feature", "properties": {"norad_id": 38771, "name": "METOP-B", "group": "weather", "lat": 37.8290422125238, "lon": 39.6341999731696, "alt_km": 817.5384869945883, "timestamp": "2025-12-22T15:43:48.625314+00:00", "meta": {"OBJECT_NAME": "METOP-B", "OBJECT_ID": "2012-049A", "EPOCH": "2025-12-22T05:24:49.828608", "MEAN_MOTION": 14.21411887, "ECCENTRICITY": 0.00031997, "INCLINATION": 98.6785, "RA_OF_ASC_NODE": 46.0229, "ARG_OF_PERICENTER": 124.1254, "MEAN_ANOMALY": 236.0228, "EPHEMERIS_TYPE": 0, "CLASSIFICATION_TYPE": "U", "NORAD_CAT_ID": 38771, "ELEMENT_SET_NO": 999, "REV_AT_EPOCH": 68812, "BSTAR": 8.3224034e-05, "MEAN_MOTION_DOT": 1.38e-06, "MEAN_MOTION_DDOT": 0}, "tle": {"line1": "1 38771U 12049A   25356.22557672  .00000138  00000+0  83224-4 0  9993", "line2": "2 38771  98.6785  46.0229 0003199 124.1254 236.0228 14.21411887688120"}}, "geometry": {"type": "Point", "coordinates": [39.6341999731696, 37.8290422125238]}}, {"type": "Feature", "properties": {"norad_id": 39216, "name": "INSAT-3D", "group": "weather", "lat": 0.33108411865197107, "lon": 96.89653494667205, "alt_km": 35790.860107002954, "timestamp": "2025-12-22T15:43:48.625327+00:00", "meta": {"OBJECT_NAME": "INSAT-3D", "OBJECT_ID": "2013-038B", "EPOCH": "2025-12-21T22:22:26.393088", "MEAN_MOTION": 1.00276295, "ECCENTRICITY": 0.00018209, "INCLINATION": 1.4671, "RA_OF_ASC_NODE": 84.8937, "ARG_OF_PERICENTER": 152.8025, "MEAN_ANOMALY": 318.1565, "EPHEMERIS_TYPE": 0, "CLASSIFICATION_TYPE": "U", "NORAD_CAT_ID": 39216, "ELEMENT_SET_NO": 999, "REV_AT_EPOCH": 4530, "BSTAR": 0, "MEAN_MOTION_DOT": -3.17e-06, "MEAN_MOTION_DDOT": 0}, "tle": {"line1": "1 39216U 13038B   25355.93224992 -.00000317  00000+0  00000+0 0  9996", "line2": "2 39216   1.4671  84.8937 0001820 152.8025 318.1565  1.00276295 45308"}}, "geometry": {"type": "Point", "coordinates": [96.89653494667205, 0.33108411865197107]}}, {"type": "Feature", "properties": {"norad_id": 39260, "name": "FENGYUN 3C", "group": "weather", "lat": 78.00033129947691, "lon": -70.71080639704219, "alt_km": 831.8156479420486, "timestamp": "2025-12-22T15:43:48.625339+00:00", "meta": {"OBJECT_NAME": "FENGYUN 3C", "OBJECT_ID": "2013-052A", "EPOCH": "2025-12-22T05:10:07.294944", "MEAN_MOTION": 14.15699028, "ECCENTRICITY": 0.00148046, "INCLINATION": 98.4774, "RA_OF_ASC_NODE": 333.4325, "ARG_OF_PERICENTER": 168.5405, "MEAN_ANOMALY": 191.611, "EPHEMERIS_TYPE": 0, "CLASSIFICATION_TYPE": "U", "NORAD_CAT_ID": 39260, "ELEMENT_SET_NO": 999, "REV_AT_EPOCH": 63352, "BSTAR": 6.5206816e-05, "MEAN_MOTION_DOT": 8.7e-07, "MEAN_MOTION_DDOT": 0}, "tle": {"line1": "1 39260U 13052A   25356.21536221  .00000087  00000+0  65207-4 0  9992", "line2": "2 39260  98.4774 333.4325 0014804 168.5405 191.6110 14.15699028633523"}}, "geometry": {"type": "Point", "coordinates": [-70.71080639704219, 78.00033129947691]}}, {"type": "Feature", "properties": {"norad_id": 40069, "name": "METEOR-M 2", "group": "weather", "lat": -80.59762158705375, "lon": 89.42425132380615, "alt_km": 827.8189451641765, "timestamp": "2025-12-22T15:43:48.625350+00:00", "meta": {"OBJECT_NAME": "METEOR-M 2", "OBJECT_ID": "2014-037A", "EPOCH": "2025-12-22T06:02:08.583072", "MEAN_MOTION": 14.21390311, "ECCENTRICITY": 0.00054567, "INCLINATION": 98.4907, "RA_OF_ASC_NODE": 333.4714, "ARG_OF_PERICENTER": 179.5704, "MEAN_ANOMALY": 180.548, "EPHEMERIS_TYPE": 0, "CLASSIFICATION_TYPE": "U", "NORAD_CAT_ID": 40069, "ELEMENT_SET_NO": 999, "REV_AT_EPOCH": 59418, "BSTAR": 0.00010205562, "MEAN_MOTION_DOT": 1.81e-06, "MEAN_MOTION_DDOT": 0}, "tle": {"line1": "1 40069U 14037A   25356.25148823  .00000181  00000+0  10206-3 0  9999", "line2": "2 40069  98.4907 333.4714 0005456 179.5704 180.5480 14.21390311594184"}}, "geometry": {"type": "Point", "coordinates": [89.42425132380615, -80.59762158705375]}}, {"type": "Feature", "properties": {"norad_id": 40267, "name": "HIMAWARI-8", "group": "weather", "lat": 0.016372479591626226, "lon": 108.06384379388302, "alt_km": 35790.336071784, "timestamp": "2025-12-22T15:43:48.625362+00:00", "meta": {"OBJECT_NAME": "HIMAWARI-8", "OBJECT_ID": "2014-060A", "EPOCH": "2025-12-22T05:16:30.955872", "MEAN_MOTION": 1.00270276, "ECCENTRICITY": 9.068e-05, "INCLINATION": 0.0389, "RA_OF_ASC_NODE": 131.2732, "ARG_OF_PERICENTER": 166.0851, "MEAN_ANOMALY": 13.4605, "EPHEMERIS_TYPE": 0, "CLASSIFICATION_TYPE": "U", "NORAD_CAT_ID": 40267, "ELEMENT_SET_NO": 999, "REV_AT_EPOCH": 4098, "BSTAR": 0, "MEAN_MOTION_DOT": -2.54e-06, "MEAN_MOTION_DDOT": 0}, "tle": {"line1": "1 40267U 14060A   25356.21980273 -.00000254  00000+0  00000+0 0  9993", "line2": "2 40267   0.0389 131.2732 0000906 166.0851  13.4605  1.00270276 40987"}}, "geometry": {"type": "Point", "coordinates": [108.06384379388302, 0.016372479591626226]}}, {"type": "Feature", "properties": {"norad_id": 40367, "name": "FENGYUN 2G", "group": "weather", "lat": -0.7363348827619988, "lon": 66.64996065581501, "alt_km": 35798.863543806096, "timestamp": "2025-12-22T15:43:48.625375+00:00", "meta": {"OBJECT_NAME": "FENGYUN 2G", "OBJECT_ID": "2014-090A", "EPOCH": "2025-12-22T01:39:14.264640", "MEAN_MOTION": 1.00260639, "ECCENTRICITY": 0.00026502, "INCLINATION": 5.1903, "RA_OF_ASC_NODE": 74.9911, "ARG_OF_PERICENTER": 204.0902, "MEAN_ANOMALY": 295.8253, "EPHEMERIS_TYPE": 0, "CLASSIFICATION_TYPE": "U", "NORAD_CAT_ID": 40367, "ELEMENT_SET_NO": 999, "REV_AT_EPOCH": 4022, "BSTAR": 0, "MEAN_MOTION_DOT": -2.79e-06, "MEAN_MOTION_DDOT": 0}, "tle": {"line1": "1 40367U 14090A   25356.06891510 -.00000279  00000+0  00000+0 0  9992", "line2": "2 40367   5.1903  74.9911 0002650 204.0902 295.8253  1.00260639 40220"}}, "geometry": {"type": "Point", "coordinates": [66.64996065581501, -0.7363348827619988]}}, {"type": "Feature", "properties": {"norad_id": 40732, "name": "METEOSAT-11 (MSG-4)", "group": "weather", "lat": -2.7632011096000113, "lon": -23.404029715863274, "alt_km": 35788.79850717921, "timestamp": "2025-12-22T15:43:48.625387+00:00", "meta": {"OBJECT_NAME": "METEOSAT-11 (MSG-4)", "OBJECT_ID": "2015-034A", "EPOCH": "2025-12-22T04:38:57.052896", "MEAN_MOTION": 1.00270451, "ECCENTRICITY": 7.893e-05, "INCLINATION": 2.7599, "RA_OF_ASC_NODE": 71.9763, "ARG_OF_PERICENTER": 136.9247, "MEAN_ANOMALY": 321.0298, "EPHEMERIS_TYPE": 0, "CLASSIFICATION_TYPE": "U", "NORAD_CAT_ID": 40732, "ELEMENT_SET_NO": 999, "REV_AT_EPOCH": 544, "BSTAR": 0, "MEAN_MOTION_DOT": 8.1e-07, "MEAN_MOTION_DDOT": 0}, "tle": {"line1": "1 40732U 15034A   25356.19371589  .00000081  00000+0  00000+0 0  9990", "line2": "2 40732   2.7599  71.9763 0000789 136.9247 321.0298  1.00270451  5447"}}, "geometry": {"type": "Point", "coordinates": [-23.404029715863274, -2.7632011096000113]}}, {"type": "Feature", "properties": {"norad_id": 41105, "name": "ELEKTRO-L 2", "group": "weather", "lat": -5.444952179771731, "lon": -47.18858086635143, "alt_km": 35773.94369511604, "timestamp": "2025-12-22T15:43:48.625400+00:00", "meta": {"OBJECT_NAME": "ELEKTRO-L 2", "OBJECT_ID": "2015-074A", "EPOCH": "2025-12-22T01:06:40.663872", "MEAN_MOTION": 1.0027241, "ECCENTRICITY": 0.00035105, "INCLINATION": 6.2477, "RA_OF_ASC_NODE": 72.7176, "ARG_OF_PERICENTER": 208.8896, "MEAN_ANOMALY": 171.4459, "EPHEMERIS_TYPE": 0, "CLASSIFICATION_TYPE": "U", "NORAD_CAT_ID": 41105, "ELEMENT_SET_NO": 999, "REV_AT_EPOCH": 3673, "BSTAR": 0, "MEAN_MOTION_DOT": -9.9e-07, "MEAN_MOTION_DDOT": 0}, "tle": {"line1": "1 41105U 15074A   25356.04630398 -.00000099  00000+0  00000+0 0  9999", "line2": "2 41105   6.2477  72.7176 0003510 208.8896 171.4459  1.00272410 36736"}}, "geometry": {"type": "Point", "coordinates": [-47.18858086635143, -5.444952179771731]}}, {"type": "Feature", "properties": {"norad_id": 41752, "name": "INSAT-3DR", "group": "weather", "lat": -0.06574457865596217, "lon": 41.51772932014279, "alt_km": 35824.546156839235, "timestamp": "2025-12-22T15:43:48.625415+00:00", "meta": {"OBJECT_NAME": "INSAT-3DR", "OBJECT_ID": "2016-054A", "EPOCH": "2025-12-22T03:14:42.620928", "MEAN_MOTION": 1.00271607, "ECCENTRICITY": 0.00141706, "INCLINATION": 0.1142, "RA_OF_ASC_NODE": 86.2504, "ARG_OF_PERICENTER": 185.4248, "MEAN_ANOMALY": 301.9366, "EPHEMERIS_TYPE": 0, "CLASSIFICATION_TYPE": "U", "NORAD_CAT_ID": 41752, "ELEMENT_SET_NO": 999, "REV_AT_EPOCH": 3404, "BSTAR": 0, "MEAN_MOTION_DOT": -5.5e-07, "MEAN_MOTION_DDOT": 0}, "tle": {"line1": "1 41752U 16054A   25356.13521552 -.00000055  00000+0  00000+0 0  9999", "line2": "2 41752   0.1142  86.2504 0014170 185.4248 301.9366  1.00271607 34042"}}, "geometry": {"type": "Point", "coordinates": [41.51772932014279, -0.06574457865596217]}}]}